{"type": "FeatureCollection", "features": [ {"type": "Feature", "properties": {"norad_id": 34611, "name": "COSMOS 2251 DEB", "group": "cosmos-2251-debris", "lat": 35.45433615122023, "lon": -118.01168063819652, "alt_km": 646.5166821374642, "timestamp": "2025-12-26T19:22:39.304159+00:00", "meta": {"OBJECT_NAME": "COSMOS 2251 DEB", "OBJECT_ID": "1993-036WG", "EPOCH": "2025-12-26T12:15:57.945312", "MEAN_MOTION": 14.69738867, "ECCENTRICITY": 0.00213751, "INCLINATION": 74.0531, "RA_OF_ASC_NODE": 74.3099, "ARG_OF_PERICENTER": 110.4672, "MEAN_ANOMALY": 265.0492, "EPHEMERIS_TYPE": 0, "CLASSIFICATION_TYPE": "U", "NORAD_CAT_ID": 34611, "ELEMENT_SET_NO": 999, "REV_AT_EPOCH": 88593, "BSTAR": 0.0013572021, "MEAN_MOTION_DOT": 8.098e-05, "MEAN_MOTION_DDOT": 0}, "tle": {"line1": "1 34611U 93036WG  25360.51108733  .00008098  00000+0  13572-2 0  9994", "line2": "2 34611  74.0531  74.3099 0021375 110.4672 265.0492 14.69738867885938"}}, "geometry": {"type": "Point", "coordinates": [-118.01168063819652, 35.45433615122023]}}, {"type": "Feature", "properties": {"norad_id": 34613, "name": "COSMOS 2251 DEB", "group": "cosmos-2251-debris", "lat": -26.360909536363575, "lon": 81.20319541050833, "alt_km": 855.015032321854, "timestamp": "2025-12-26T19:22:39.304187+00:00", "meta": {"OBJECT_NAME": "COSMOS 2251 DEB", "OBJECT_ID": "1993-036WJ", "EPOCH": "2025-12-24T17:45:16.187616", "MEAN_MOTION": 14.26502206, "ECCENTRICITY": 0.01107264, "INCLINATION": 73.9629, "RA_OF_ASC_NODE": 256.7621, "ARG_OF_PERICENTER": 85.5038, "MEAN_ANOMALY": 306.9262, "EPHEMERIS_TYPE": 0, "CLASSIFICATION_TYPE": "U", "NORAD_CAT_ID": 34613, "ELEMENT_SET_NO": 999, "REV_AT_EPOCH": 86634, "BSTAR": 0.0011571571, "MEAN_MOTION_DOT": 2.951e-05, "MEAN_MOTION_DDOT": 0}, "tle": {"line1": "1 34613U 93036WJ  25358.73977069  .00002951  00000+0  11572-2 0  9993", "line2": "2 34613  73.9629 256.7621 0110726  85.5038 306.9262 14.26502206866343"}}, "geometry": {"type": "Point", "coordinates": [81.20319541050833, -26.360909536363575]}}, {"type": "Feature", "properties": {"norad_id": 34614, "name": "COSMOS 2251 DEB", "group": "cosmos-2251-debris", "lat": 37.05423925672463, "lon": -28.822756270775837, "alt_km": 823.020350472817, "timestamp": "2025-12-26T19:22:39.304200+00:00", "meta": {"OBJECT_NAME": "COSMOS 2251 DEB", "OBJECT_ID": "1993-036WK", "EPOCH": "2025-12-24T21:37:08.839200", "MEAN_MOTION": 14.17833523, "ECCENTRICITY": 0.0196231, "INCLINATION": 73.8822, "RA_OF_ASC_NODE": 321.9977, "ARG_OF_PERICENTER": 314.2153, "MEAN_ANOMALY": 74.3764, "EPHEMERIS_TYPE": 0, "CLASSIFICATION_TYPE": "U", "NORAD_CAT_ID": 34614, "ELEMENT_SET_NO": 999, "REV_AT_EPOCH": 84939, "BSTAR": 0.0067486, "MEAN_MOTION_DOT": 0.0001667, "MEAN_MOTION_DDOT": 0}, "tle": {"line1": "1 34614U 93036WK  25358.90079675  .00016670  00000+0  67486-2 0  9997", "line2": "2 34614  73.8822 321.9977 0196231 314.2153  74.3764 14.17833523849390"}}, "geometry": {"type": "Point", "coordinates": [-28.822756270775837, 37.05423925672463]}}, {"type": "Feature", "properties": {"norad_id": 34615, "name": "COSMOS 2251 DEB", "group": "cosmos-2251-debris", "lat": -37.38253026014692, "lon": 104.23908469413769, "alt_km": 847.7488313210551, "timestamp": "2025-12-26T19:22:39.304212+00:00", "meta": {"OBJECT_NAME": "COSMOS 2251 DEB", "OBJECT_ID": "1993-036WL", "EPOCH": "2025-12-26T12:04:09.308928", "MEAN_MOTION": 13.5220777, "ECCENTRICITY": 0.04002261, "INCLINATION": 74.0046, "RA_OF_ASC_NODE": 272.0676, "ARG_OF_PERICENTER": 176.3583, "MEAN_ANOMALY": 357.8364, "EPHEMERIS_TYPE": 0, "CLASSIFICATION_TYPE": "U", "NORAD_CAT_ID": 34615, "ELEMENT_SET_NO": 999, "REV_AT_EPOCH": 83001, "BSTAR": 0.00026790221, "MEAN_MOTION_DOT": 2.72e-06, "MEAN_MOTION_DDOT": 0}, "tle": {"line1": "1 34615U 93036WL  25360.50288552  .00000272  00000+0  26790-3 0  9998", "line2": "2 34615  74.0046 272.0676 0400226 176.3583 357.8364 13.52207770830011"}}, "geometry": {"type": "Point", "coordinates": [104.23908469413769, -37.38253026014692]}}, {"type": "Feature", "properties": {"norad_id": 34619, "name": "COSMOS 2251 DEB", "group": "cosmos-2251-debris", "lat": 51.6949397771467, "lon": -165.85710141420154, "alt_km": 730.8197377067136, "timestamp": "2025-12-26T19:22:39.304222+00:00", "meta": {"OBJECT_NAME": "COSMOS 2251 DEB", "OBJECT_ID": "1993-036WQ", "EPOCH": "2025-12-26T12:34:09.223104", "MEAN_MOTION": 14.64679955, "ECCENTRICITY": 0.00947222, "INCLINATION": 74.0429, "RA_OF_ASC_NODE": 173.4506, "ARG_OF_PERICENTER": 265.1679, "MEAN_ANOMALY": 93.8669, "EPHEMERIS_TYPE": 0, "CLASSIFICATION_TYPE": "U", "NORAD_CAT_ID": 34619, "ELEMENT_SET_NO": 999, "REV_AT_EPOCH": 89500, "BSTAR": 0.00026621968, "MEAN_MOTION_DOT": 1.478e-05, "MEAN_MOTION_DDOT": 0}, "tle": {"line1": "1 34619U 93036WQ  25360.52371786  .00001478  00000+0  26622-3 0  9999", "line2": "2 34619  74.0429 173.4506 0094722 265.1679  93.8669 14.64679955895006"}}, "geometry": {"type": "Point", "coordinates": [-165.85710141420154, 51.6949397771467]}}, {"type": "Feature", "properties": {"norad_id": 34620, "name": "COSMOS 2251 DEB", "group": "cosmos-2251-debris", "lat": -47.69327509873839, "lon": 31.483677808989572, "alt_km": 678.0473099544897, "timestamp": "2025-12-26T19:22:39.304232+00:00", "meta": {"OBJECT_NAME": "COSMOS 2251 DEB", "OBJECT_ID": "1993-036WR", "EPOCH": "2025-12-26T15:00:09.946368", "MEAN_MOTION": 14.49319824, "ECCENTRICITY": 0.00793633, "INCLINATION": 74.0513, "RA_OF_ASC_NODE": 193.5129, "ARG_OF_PERICENTER": 226.8087, "MEAN_ANOMALY": 132.6426, "EPHEMERIS_TYPE": 0, "CLASSIFICATION_TYPE": "U", "NORAD_CAT_ID": 34620, "ELEMENT_SET_NO": 999, "REV_AT_EPOCH": 87028, "BSTAR": 0.0024507747, "MEAN_MOTION_DOT": 9.725e-05, "MEAN_MOTION_DDOT": 0}, "tle": {"line1": "1 34620U 93036WR  25360.62511512  .00009725  00000+0  24508-2 0  9998", "line2": "2 34620  74.0513 193.5129 0079363 226.8087 132.6426 14.49319824870282"}}, "geometry": {"type": "Point", "coordinates": [31.483677808989572, -47.69327509873839]}}, {"type": "Feature", "properties": {"norad_id": 34622, "name": "COSMOS 2251 DEB", "group": "cosmos-2251-debris", "lat": -61.881702215756825, "lon": -110.60413150261262, "alt_km": 795.3476868506077, "timestamp": "2025-12-26T19:22:39.304243+00:00", "meta": {"OBJECT_NAME": "COSMOS 2251 DEB", "OBJECT_ID": "1993-036WT", "EPOCH": "2025-12-26T11:47:44.253888", "MEAN_MOTION": 14.22098383, "ECCENTRICITY": 0.01050025, "INCLINATION": 74.0424, "RA_OF_ASC_NODE": 282.3374, "ARG_OF_PERICENTER": 1.5352, "MEAN_ANOMALY": 116.3755, "EPHEMERIS_TYPE": 0, "CLASSIFICATION_TYPE": "U", "NORAD_CAT_ID": 34622, "ELEMENT_SET_NO": 999, "REV_AT_EPOCH": 86655, "BSTAR": 0.00087347866, "MEAN_MOTION_DOT": 2.02e-05, "MEAN_MOTION_DDOT": 0}, "tle": {"line1": "1 34622U 93036WT  25360.49148442  .00002020  00000+0  87348-3 0  9996", "line2": "2 34622  74.0424 282.3374 0105002   1.5352 116.3755 14.22098383866551"}}, "geometry": {"type": "Point", "coordinates": [-110.60413150261262, -61.881702215756825]}}, {"type": "Feature", "properties": {"norad_id": 34626, "name": "COSMOS 2251 DEB", "group": "cosmos-2251-debris", "lat": 38.21549030290383, "lon": 103.52523467271197, "alt_km": 659.5444057420673, "timestamp": "2025-12-26T19:22:39.304253+00:00", "meta": {"OBJECT_NAME": "COSMOS 2251 DEB", "OBJECT_ID": "1993-036WX", "EPOCH": "2025-12-26T06:22:44.648256", "MEAN_MOTION": 14.72364831, "ECCENTRICITY": 0.00272609, "INCLINATION": 74.0484, "RA_OF_ASC_NODE": 297.5928, "ARG_OF_PERICENTER": 22.2177, "MEAN_ANOMALY": 127.7803, "EPHEMERIS_TYPE": 0, "CLASSIFICATION_TYPE": "U", "NORAD_CAT_ID": 34626, "ELEMENT_SET_NO": 999, "REV_AT_EPOCH": 89343, "BSTAR": 0.0011280629, "MEAN_MOTION_DOT": 7.158e-05, "MEAN_MOTION_DDOT": 0}, "tle": {"line1": "1 34626U 93036WX  25360.26579454  .00007158  00000+0  11281-2 0  9995", "line2": "2 34626  74.0484 297.5928 0027260  22.2177 127.7803 14.72364831893434"}}, "geometry": {"type": "Point", "coordinates": [103.52523467271197, 38.21549030290383]}}, {"type": "Feature", "properties": {"norad_id": 34634, "name": "COSMOS 2251 DEB", "group": "cosmos-2251-debris", "lat": -6.189397190348798, "lon": -169.8843720505568, "alt_km": 702.3126778200603, "timestamp": "2025-12-26T19:22:39.304263+00:00", "meta": {"OBJECT_NAME": "COSMOS 2251 DEB", "OBJECT_ID": "1993-036XF", "EPOCH": "2025-12-26T02:17:44.132352", "MEAN_MOTION": 14.55692956, "ECCENTRICITY": 0.00436541, "INCLINATION": 74.0512, "RA_OF_ASC_NODE": 9.6855, "ARG_OF_PERICENTER": 112.9861, "MEAN_ANOMALY": 304.4596, "EPHEMERIS_TYPE": 0, "CLASSIFICATION_TYPE": "U", "NORAD_CAT_ID": 34634, "ELEMENT_SET_NO": 999, "REV_AT_EPOCH": 88976, "BSTAR": 0.00029034444, "MEAN_MOTION_DOT": 1.256e-05, "MEAN_MOTION_DDOT": 0}, "tle": {"line1": "1 34634U 93036XF  25360.09564968  .00001256  00000+0  29034-3 0  9998", "line2": "2 34634  74.0512   9.6855 0043654 112.9861 304.4596 14.55692956889765"}}, "geometry": {"type": "Point", "coordinates": [-169.8843720505568, -6.189397190348798]}}, {"type": "Feature", "properties": {"norad_id": 34635, "name": "COSMOS 2251 DEB", "group": "cosmos-2251-debris", "lat": -30.0832989824951, "lon": 33.98769147750747, "alt_km": 686.2586683994186, "timestamp": "2025-12-26T19:22:39.304274+00:00", "meta": {"OBJECT_NAME": "COSMOS 2251 DEB", "OBJECT_ID": "1993-036XG", "EPOCH": "2025-12-25T22:32:29.783904", "MEAN_MOTION": 14.68422636, "ECCENTRICITY": 0.002762, "INCLINATION": 74.0453, "RA_OF_ASC_NODE": 45.2043, "ARG_OF_PERICENTER": 109.1526, "MEAN_ANOMALY": 312.222, "EPHEMERIS_TYPE": 0, "CLASSIFICATION_TYPE": "U", "NORAD_CAT_ID": 34635, "ELEMENT_SET_NO": 999, "REV_AT_EPOCH": 73413, "BSTAR": 0.00099638, "MEAN_MOTION_DOT": 5.772e-05, "MEAN_MOTION_DDOT": 0}, "tle": {"line1": "1 34635U 93036XG  25359.93923361  .00005772  00000+0  99638-3 0  9990", "line2": "2 34635  74.0453  45.2043 0027620 109.1526 312.2220 14.68422636734137"}}, "geometry": {"type": "Point", "coordinates": [33.98769147750747, -30.0832989824951]}}]}